IRIDIUM 7               
1 24793U 97020B   25290.95877669  .00000548  00000+0  18195-3 0  9991
2 24793  86.3930 125.4980 0002443  86.2502 273.8974 14.36034212489514
IRIDIUM 5               
1 24795U 97020D   25290.80825877  .00008154  00000+0  64768-3 0  9999
2 24795  86.3927  27.1178 0107775  58.5555 302.6157 14.95765716503788
IRIDIUM 4               
1 24796U 97020E   25290.93490464  .00000584  00000+0  19066-3 0  9994
2 24796  86.3921 122.3028 0002241  89.3645 270.7809 14.36936547490094
IRIDIUM 914             
1 24836U 97030A   25290.94141150  .00000649  00000+0  19596-3 0  9996
2 24836  86.3915 130.5409 0002755 122.4388 237.7078 14.40984752624804
IRIDIUM 16              
1 24841U 97030F   25290.87719388  .00000480  00000+0  14963-3 0  9994
2 24841  86.4058 153.7894 0003690  54.6730 305.4813 14.38812986484642
IRIDIUM 911             
1 24842U 97030G   25290.87216210  .00000761  00000+0  20013-3 0  9996
2 24842  86.4479 152.4286 0015973  53.5147 306.7525 14.47792597492837
IRIDIUM 17              
1 24870U 97034B   25290.93939154  .00000634  00000+0  20342-3 0  9991
2 24870  86.4022 183.1766 0002216  39.7042 320.4318 14.37951157481224
IRIDIUM 920             
1 24871U 97034C   25290.59748580  .00000559  00000+0  16546-3 0  9992
2 24871  86.4015 162.2938 0013116  45.0798 315.1463 14.41652693484217
